{
    "links": {
        "self": "http://www.neowsapp.com/rest/v1/neo/54050998?api_key=iIulBulltgU6a56xZRHN4H3l9WmuAYTsLGpBGhQ2"
    },
    "id": "54050998",
    "neo_reference_id": "54050998",
    "name": "(2020 PO1)",
    "designation": "2020 PO1",
    "nasa_jpl_url": "http://ssd.jpl.nasa.gov/sbdb.cgi?sstr=54050998",
    "absolute_magnitude_h": 25.066,
    "estimated_diameter": {
        "kilometers": {
            "estimated_diameter_min": 0.0257842781,
            "estimated_diameter_max": 0.0576553986
        },
        "meters": {
            "estimated_diameter_min": 25.784278096,
            "estimated_diameter_max": 57.6553985734
        },
        "miles": {
            "estimated_diameter_min": 0.0160216027,
            "estimated_diameter_max": 0.0358253927
        },
        "feet": {
            "estimated_diameter_min": 84.5940909484,
            "estimated_diameter_max": 189.1581378554
        }
    },
    "is_potentially_hazardous_asteroid": false,
    "close_approach_data": [
        {
            "close_approach_date": "2020-08-31",
            "close_approach_date_full": "2020-Aug-31 14:16",
            "epoch_date_close_approach": 1598883360000,
            "relative_velocity": {
                "kilometers_per_second": "5.8201797098",
                "kilometers_per_hour": "20952.6469552038",
                "miles_per_hour": "13019.1599928042"
            },
            "miss_distance": {
                "astronomical": "0.1027726177",
                "lunar": "39.9785482853",
                "kilometers": "15374564.702244299",
                "miles": "9553311.5130333662"
            },
            "orbiting_body": "Earth"
        },
        {
            "close_approach_date": "2172-09-22",
            "close_approach_date_full": "2172-Sep-22 22:14",
            "epoch_date_close_approach": 6397481640000,
            "relative_velocity": {
                "kilometers_per_second": "9.8074957147",
                "kilometers_per_hour": "35306.9845728055",
                "miles_per_hour": "21938.3871641413"
            },
            "miss_distance": {
                "astronomical": "0.2473111878",
                "lunar": "96.2040520542",
                "kilometers": "36997226.922049986",
                "miles": "22989010.7947663668"
            },
            "orbiting_body": "Earth"
        }
    ],
    "orbital_data": {
        "orbit_id": "7",
        "orbit_determination_date": "2020-09-16 07:57:22",
        "first_observation_date": "2020-08-11",
        "last_observation_date": "2020-09-15",
        "data_arc_in_days": 35,
        "observations_used": 44,
        "orbit_uncertainty": "7",
        "minimum_orbit_intersection": ".102857",
        "jupiter_tisserand_invariant": "3.284",
        "epoch_osculation": "2459000.5",
        "eccentricity": ".5434974515220447",
        "semi_major_axis": "2.435236934989558",
        "inclination": "2.673024343525203",
        "ascending_node_longitude": "159.1153152586179",
        "orbital_period": "1388.066458365931",
        "perihelion_distance": "1.111691866970378",
        "perihelion_argument": "179.6851014038043",
        "aphelion_distance": "3.758782003008738",
        "perihelion_time": "2459093.961330806894",
        "mean_anomaly": "335.760469617506",
        "mean_motion": ".259353576214068",
        "equinox": "J2000",
        "orbit_class": {
            "orbit_class_type": "AMO",
            "orbit_class_description": "Near-Earth asteroid orbits similar to that of 1221 Amor",
            "orbit_class_range": "1.017 AU < q (perihelion) < 1.3 AU"
        }
    },
    "is_sentry_object": false
}